ONEWEB-0474             
1 51654U 22012AJ  23341.23603138 -.00000681  00000+0 -19878-2 0  9998
2 51654  87.8922 219.5790 0001649  62.8112 297.3183 13.10371128 88424
ONEWEB-0475             
1 51655U 22012AK  23341.59675933  .00000011  00000+0 -37968-5 0  9999
2 51655  87.9221 189.2917 0000949  82.1101 278.0138 13.17649977 92199
ONEWEB-0490             
1 54113U 22138A   23341.44419938  .00000064  00000+0  12807-3 0  9995
2 54113  87.9180 128.6433 0001355  99.8342 260.2944 13.19727342 55124
ONEWEB-0492             
1 54114U 22138B   23341.46947509  .00000033  00000+0  50394-4 0  9998
2 54114  87.9181 128.6332 0001327 111.0249 249.1026 13.19725075 55135
ONEWEB-0495             
1 54115U 22138C   23341.44735778  .00000100  00000+0  21727-3 0  9992
2 54115  87.9182 128.6490 0001058 108.4504 251.6744 13.19728271 55111
ONEWEB-0497             
1 54116U 22138D   23341.45999707  .00000076  00000+0  15677-3 0  9997
2 54116  87.9188 128.6413 0001441 103.9807 256.1486 13.19724070 55100
ONEWEB-0499             
1 54117U 22138E   23341.44264227  .00000079  00000+0  16616-3 0  9996
2 54117  87.9176 128.6392 0001260  75.8366 284.2907 13.19726938 55116
ONEWEB-0500             
1 54118U 22138F   23341.44578685  .00000030  00000+0  43054-4 0  9997
2 54118  87.9182 128.6378 0001451 100.3961 259.7336 13.19725115 55125
